STARLINK-2065           
1 47672U 21012BE  26068.25173490  .00113313  00000+0  96340-3 0  9991
2 47672  53.1532  11.1448 0006678  48.9965 311.1629 15.68762860280792
STARLINK-11473 [DTC]    
1 62060U 24217D   26068.26602113  .00192074  00000+0  15542-2 0  9994
2 62060  53.1574  73.5928 0001268  81.2542 278.8619 15.69703182 75100
